MEAN_MOTION;ECCENTRICITY;INCLINATION;RA_OF_ASC_NODE;ARG_OF_PERICENTER;MEAN_ANOMALY;BSTAR;MEAN_MOTION_DOT;MEAN_MOTION_DDOT;TYPE
14.54766526;0.0003172;47.0004;55.0861;300.1562;59.9008;2.275E-5;-6.7E-7;0;Orbcomm
14.54766529;0.0003169;47.0004;54.7635;300.3937;59.6633;2.2594E-5;-6.8E-7;0;Orbcomm
14.54766748;0.0003134;47.0006;49.9241;304.3913;55.6675;2.3092E-5;-6.6E-7;0;Orbcomm
14.54766838;0.0003119;47.0006;48.6336;305.4873;54.572;2.4105E-5;-6.2E-7;0;Orbcomm
14.54766977;0.0003097;47.0007;45.4074;308.2608;51.7997;2.3647E-5;-6.4E-7;0;Orbcomm
14.54767129;0.0003069;47.0008;43.1492;310.2085;49.853;2.4972E-5;-5.8E-7;0;Orbcomm
14.54767263;0.0003053;47.0009;40.5682;312.3082;47.7543;2.5369E-5;-5.6E-7;0;Orbcomm
14.54767409;0.0003026;47.0009;38.31;314.3161;45.7475;2.6096E-5;-5.3E-7;0;Orbcomm
14.54767774;0.0002953;47.001;31.2123;320.8549;39.2121;2.6459E-5;-5.1E-7;0;Orbcomm
14.54767795;0.0002947;47.001;30.8897;321.0609;39.0063;2.6138E-5;-5.3E-7;0;Orbcomm
14.54768102;0.000292;47.0011;26.6957;323.949;36.1197;2.8681E-5;-4.2E-7;0;Orbcomm
14.54768209;0.00029;47.0011;25.0827;325.3709;34.6986;2.9943E-5;-3.6E-7;0;Orbcomm
14.54768235;0.0002897;47.0011;24.7601;325.6918;34.3778;3.0172E-5;-3.5E-7;0;Orbcomm
14.54768561;0.0002829;47.0013;18.3077;331.1641;28.9087;2.8806E-5;-4.1E-7;0;Orbcomm
14.5476864;0.0002807;47.0013;17.0172;332.3133;27.7601;2.8954E-5;-4.1E-7;0;Orbcomm
14.54768881;0.0002756;47.0013;12.8233;336.1846;23.891;3.0529E-5;-3.4E-7;0;Orbcomm
14.54768919;0.0002751;47.0013;12.5007;336.7195;23.3564;3.0806E-5;-3.3E-7;0;Orbcomm
14.54769239;0.0002697;47.0014;7.9842;340.9084;19.1699;3.371E-5;-2.0E-7;0;Orbcomm
14.54769266;0.0002689;47.0014;7.6616;341.2193;18.8592;3.3921E-5;-1.9E-7;0;Orbcomm
14.54769632;0.0002635;47.0014;2.8225;345.639;14.4419;3.5766E-5;-1.1E-7;0;Orbcomm
14.54769699;0.0002625;47.0014;1.8547;346.6366;13.4448;3.6511E-5;-8.0E-8;0;Orbcomm
14.54769912;0.000259;47.0014;359.919;348.3796;11.7028;3.9895E-5;7.0E-8;0;Orbcomm
14.54769987;0.000256;47.0014;358.3059;349.9862;10.0971;3.8499E-5;1.0E-8;0;Orbcomm
14.54770039;0.0002544;47.0014;357.0156;351.2718;8.8122;3.8066E-5;-1.0E-8;0;Orbcomm
14.54770145;0.0002528;47.0014;355.4025;352.7208;7.3639;3.7309E-5;-4.0E-8;0;Orbcomm
14.54770271;0.0002497;47.0013;353.4668;354.5237;5.5619;3.734E-5;-4.0E-8;0;Orbcomm
14.5477042;0.0002475;47.0013;351.5312;356.6338;3.4529;3.7329E-5;-4.0E-8;0;Orbcomm
14.54770862;0.0002377;47.0011;344.4337;3.7783;356.3118;3.707E-5;-5.0E-8;0;Orbcomm
14.54771147;0.0002302;47.001;339.5945;9.0259;351.0666;3.6595E-5;-7.0E-8;0;Orbcomm
14.54771233;0.0002287;47.0009;338.304;10.5372;349.556;3.7076E-5;-5.0E-8;0;Orbcomm
14.54771441;0.0002232;47.0008;334.7552;14.4447;345.6501;3.6358E-5;-8.0E-8;0;Orbcomm
14.54771515;0.0002217;47.0008;333.1421;16.2212;343.8743;3.5542E-5;-1.2E-7;0;Orbcomm
14.54771639;0.0002185;47.0007;331.2063;18.4049;341.6914;3.6424E-5;-8.0E-8;0;Orbcomm
14.54771787;0.000216;47.0007;328.6254;21.3329;338.7645;3.5906E-5;-1.0E-7;0;Orbcomm
14.54772025;0.0002102;47.0006;324.1087;26.7679;333.3314;3.4646E-5;-1.6E-7;0;Orbcomm
14.54772287;0.0002053;47.0005;319.2695;32.4482;327.6528;3.3104E-5;-2.3E-7;0;Orbcomm
14.54772543;0.0002004;47.0004;314.4302;38.5309;321.5718;3.1558E-5;-2.9E-7;0;Orbcomm
14.54772688;0.0001959;47.0004;311.5265;42.3525;317.751;3.1013E-5;-3.2E-7;0;Orbcomm
14.54772914;0.0001917;47.0002;307.0098;48.1755;311.9293;2.9332E-5;-3.9E-7;0;Orbcomm
14.5477292;0.0001914;47.0002;306.6872;48.6349;311.47;2.9199E-5;-3.9E-7;0;Orbcomm
14.54772961;0.0001906;47.0002;305.3967;50.1544;309.9508;2.8E-5;-4.5E-7;0;Orbcomm
14.54773234;0.0001866;47;300.5573;56.636;303.4703;2.8502E-5;-4.2E-7;0;Orbcomm
14.54773334;0.0001845;46.9999;298.2988;59.646;300.4607;2.8453E-5;-4.3E-7;0;Orbcomm
14.54773789;0.0001792;46.9997;290.2331;70.9626;289.1452;3.1167E-5;-3.1E-7;0;Orbcomm
14.54773907;0.0001785;46.9996;287.652;74.8326;285.2755;3.0837E-5;-3.2E-7;0;Orbcomm
14.54774033;0.0001769;46.9996;285.0708;78.6807;281.4275;3.072E-5;-3.3E-7;0;Orbcomm
14.54774044;0.0001777;46.9996;284.4255;78.9035;281.2048;2.9903E-5;-3.6E-7;0;Orbcomm
14.54774312;0.0001765;46.9996;278.9407;86.9198;273.1888;2.8999E-5;-4.0E-7;0;Orbcomm
14.54774323;0.0001766;46.9996;278.6181;87.3695;272.7391;2.884E-5;-4.1E-7;0;Orbcomm
14.54774526;0.000176;46.9996;274.1013;93.8444;266.2641;2.7278E-5;-4.8E-7;0;Orbcomm
14.54774554;0.0001761;46.9996;273.7786;94.5167;265.5918;2.7335E-5;-4.7E-7;0;Orbcomm
14.54774706;0.000176;46.9996;270.5522;99.7674;260.3408;2.5614E-5;-5.5E-7;0;Orbcomm
14.54774831;0.0001772;46.9996;266.6807;105.0252;255.0829;2.292E-5;-6.7E-7;0;Orbcomm
14.54774863;0.0001774;46.9996;266.0354;106.2793;253.8286;2.1943E-5;-7.1E-7;0;Orbcomm
14.54775152;0.0001799;46.9995;259.9056;114.919;245.1881;2.1745E-5;-7.2E-7;0;Orbcomm
14.54775282;0.0001819;46.9995;256.6793;119.3565;240.7501;2.0811E-5;-7.6E-7;0;Orbcomm
14.5477555;0.0001857;46.9995;250.5494;127.8361;232.2691;2.1216E-5;-7.4E-7;0;Orbcomm
14.54775567;0.0001858;46.9995;250.2268;128.2281;231.8771;2.128E-5;-7.4E-7;0;Orbcomm
14.54775783;0.0001893;46.9995;245.3874;134.6159;225.4879;2.246E-5;-6.9E-7;0;Orbcomm
14.54775783;0.0001893;46.9995;245.3874;134.6159;225.4879;2.246E-5;-6.9E-7;0;Orbcomm
14.54776008;0.0001933;46.9995;240.8706;140.5054;219.5972;2.455E-5;-5.9E-7;0;Orbcomm
14.54776077;0.0001941;46.9996;239.5801;142.1999;217.9022;2.514E-5;-5.7E-7;0;Orbcomm
14.54776236;0.0001973;46.9996;236.3539;145.7711;214.33;2.6521E-5;-5.1E-7;0;Orbcomm
14.5477639;0.0002011;46.9996;233.4502;149.5682;210.5319;2.7443E-5;-4.7E-7;0;Orbcomm
14.54776492;0.0002029;46.9997;231.5146;151.9019;208.1975;2.7886E-5;-4.5E-7;0;Orbcomm
14.55929136;0.0003244;46.9976;224.4054;163.6746;201.107;-0.014481;-0.00063773;0;Orbcomm
14.56503294;0.0005399;46.9864;219.9278;25.8117;335.4317;0.06278;0.00295087;0;Orbcomm
14.56498291;0.0003088;46.9959;219.1451;186.7554;283.7329;0.048759;0.0022667;0;Orbcomm
14.56531733;0.0003547;46.9974;219.0698;196.1416;345.4027;0.27623;0.01326217;0;Orbcomm
14.56729497;0.0003328;46.9994;214.7188;224.0425;136.0195;2.3136E-5;-6.4E-7;0;Orbcomm
14.56730026;0.0003295;46.9994;213.4262;225.9904;134.071;2.3202E-5;-6.4E-7;0;Orbcomm
14.56730114;0.0003348;46.9993;209.871;228.7526;131.307;2.2802E-5;-6.6E-7;0;Orbcomm
14.56730212;0.0003358;46.9993;208.2551;230.2324;129.8266;2.3126E-5;-6.4E-7;0;Orbcomm
14.56730364;0.0003391;46.9992;205.0231;232.906;127.1516;2.4392E-5;-5.8E-7;0;Orbcomm
14.56730505;0.0003396;46.9991;203.7303;233.9314;126.1257;2.9626E-5;-3.5E-7;0;Orbcomm
14.56730768;0.0003434;46.999;198.8823;237.6964;122.3588;2.9323E-5;-3.6E-7;0;Orbcomm
14.56731004;0.0003472;46.9989;194.3575;241.4403;118.6133;2.9584E-5;-3.5E-7;0;Orbcomm
14.5673111;0.0003492;46.9989;192.4182;243.0183;117.0346;3.0637E-5;-3.0E-7;0;Orbcomm
14.56731215;0.0003499;46.9989;191.1254;243.9384;116.1141;3.1896E-5;-2.5E-7;0;Orbcomm
14.56731268;0.0003504;46.9988;189.8326;245.0397;115.0124;3.1357E-5;-2.7E-7;0;Orbcomm
14.5673145;0.0003526;46.9988;186.2774;247.8651;112.186;3.1884E-5;-2.5E-7;0;Orbcomm
14.56731513;0.0003528;46.9987;185.3078;248.6803;111.3705;3.2065E-5;-2.4E-7;0;Orbcomm
14.56731734;0.0003557;46.9987;181.4293;251.8507;108.1991;3.2192E-5;-2.3E-7;0;Orbcomm
14.56731795;0.0003566;46.9987;180.1365;253.0364;107.013;3.1073E-5;-2.8E-7;0;Orbcomm
14.56732002;0.0003592;46.9987;175.6117;256.7236;103.3248;2.9105E-5;-3.7E-7;0;Orbcomm
14.56732192;0.0003602;46.9986;171.7333;259.7585;100.2894;2.8027E-5;-4.2E-7;0;Orbcomm
14.56732399;0.0003617;46.9986;167.5316;263.0609;96.9864;2.6293E-5;-5.0E-7;0;Orbcomm
14.56732432;0.0003624;46.9985;166.2388;264.1987;95.8485;2.4198E-5;-5.9E-7;0;Orbcomm
14.56732559;0.000363;46.9985;162.6836;266.9622;93.0847;2.2413E-5;-6.7E-7;0;Orbcomm
14.56732752;0.0003632;46.9983;157.1889;271.3822;88.6647;1.9293E-5;-8.2E-7;0;Orbcomm
14.56732885;0.0003628;46.9982;153.3104;274.2649;85.7821;1.8496E-5;-8.5E-7;0;Orbcomm
14.56732984;0.0003632;46.9982;150.0782;276.7968;83.2503;1.7556E-5;-8.9E-7;0;Orbcomm
14.56733035;0.0003628;46.9982;148.139;278.4689;81.5784;1.7397E-5;-9.0E-7;0;Orbcomm
14.56733047;0.000363;46.9982;147.8158;278.7284;81.3189;1.6996E-5;-9.2E-7;0;Orbcomm
14.56733223;0.0003625;46.9982;145.23;280.6724;79.3752;2.0292E-5;-7.7E-7;0;Orbcomm
14.56733278;0.000362;46.9982;143.9372;281.8326;78.2152;2.1072E-5;-7.3E-7;0;Orbcomm
14.56733372;0.0003607;46.9982;139.4122;285.3835;74.6651;1.9023E-5;-8.3E-7;0;Orbcomm
14.56733761;0.000359;46.9984;133.9175;289.8022;70.2476;2.582E-5;-5.2E-7;0;Orbcomm
14.56733769;0.0003571;46.9985;130.039;292.9396;67.1112;2.0593E-5;-7.6E-7;0;Orbcomm
14.567339;0.0003554;46.9986;126.4836;295.7391;64.3127;1.9576E-5;-8.0E-7;0;Orbcomm
14.56733973;0.0003547;46.9986;124.5445;297.2815;62.7708;1.8227E-5;-8.6E-7;0;Orbcomm
14.56734181;0.0003518;46.9988;120.3428;300.9173;59.1366;1.9393E-5;-8.1E-7;0;Orbcomm
14.5673424;0.0003493;46.9989;117.1107;303.5853;56.4698;1.5855E-5;-9.7E-7;0;Orbcomm
14.56734401;0.000346;46.999;112.5858;307.1559;52.901;1.4028E-5;-1.05E-6;0;Orbcomm
14.56734465;0.0003444;46.999;110.9698;308.7609;51.2968;1.4004E-5;-1.05E-6;0;Orbcomm
14.56734674;0.0003397;46.9992;106.1216;312.9869;47.0731;1.4569E-5;-1.03E-6;0;Orbcomm
14.5673483;0.0003357;46.9993;101.5967;316.8683;43.1938;1.4438E-5;-1.03E-6;0;Orbcomm
14.56734943;0.000332;46.9994;98.3646;319.4385;40.6252;1.5363E-5;-9.9E-7;0;Orbcomm
14.56735006;0.0003308;46.9995;97.0718;320.6807;39.3837;1.5897E-5;-9.7E-7;0;Orbcomm
14.5673508;0.0003284;46.9996;94.8093;322.4814;37.5841;1.6285E-5;-9.5E-7;0;Orbcomm
14.56735142;0.0003268;46.9996;93.5166;323.5659;36.5003;1.7092E-5;-9.1E-7;0;Orbcomm
14.56735204;0.000326;46.9997;92.2237;324.737;35.3299;1.7205E-5;-9.1E-7;0;Orbcomm
14.56735388;0.0003209;46.9999;87.6989;328.5622;31.5071;1.8559E-5;-8.5E-7;0;Orbcomm
14.56735619;0.0003148;47.0001;82.8509;332.809;27.263;2.0447E-5;-7.6E-7;0;Orbcomm
14.56735671;0.000313;47.0002;81.2349;334.1743;25.8985;2.0773E-5;-7.5E-7;0;Orbcomm
14.5673582;0.0003091;47.0003;78.3262;336.9956;23.079;2.0987E-5;-7.4E-7;0;Orbcomm
14.56735955;0.0003045;47.0004;75.0943;339.9213;20.1552;2.118E-5;-7.3E-7;0;Orbcomm
14.56736055;0.0003026;47.0004;73.4783;341.5231;18.5543;2.158E-5;-7.1E-7;0;Orbcomm
